{
  "type": "FeatureCollection",
  "features": [
    {
      "type": "Feature",
      "properties": {
        "norad_id": 66597,
        "name": "STARLINK-35820",
        "group": "last-30-days",
        "lat": -40.159214517197654,
        "lon": 11.19827015634367,
        "alt_km": 445.7188702611429,
        "timestamp": "2025-12-24T05:51:18.323864+00:00",
        "meta_object_name": "STARLINK-35820",
        "meta_object_id": "2025-270K",
        "meta_epoch": "2025-12-23T17:52:46.034400",
        "meta_mean_motion": 15.40704393,
        "meta_eccentricity": 0.00020529,
        "meta_inclination": 43.0023,
        "meta_ra_of_asc_node": 129.186,
        "meta_arg_of_pericenter": 259.8005,
        "meta_mean_anomaly": 100.262,
        "meta_ephemeris_type": 0,
        "meta_classification_type": "U",
        "meta_norad_cat_id": 66597,
        "meta_element_set_no": 999,
        "meta_rev_at_epoch": 615,
        "meta_bstar": 0.0016399731,
        "meta_mean_motion_dot": 0.00068834,
        "meta_mean_motion_ddot": 0,
        "tle_line1": "1 66597U 25270K   25357.74497725  .00068834  00000+0  16400-2 0  9997",
        "tle_line2": "2 66597  43.0023 129.1860 0002052 259.8005 100.2620 15.40704393  6151"
      },
      "geometry": {
        "type": "Point",
        "coordinates": [
          11.19827015634367,
          -40.159214517197654
        ]
      }
    },
    {
      "type": "Feature",
      "properties": {
        "norad_id": 66598,
        "name": "STARLINK-35981",
        "group": "last-30-days",
        "lat": -14.732296638465444,
        "lon": 109.7107828662683,
        "alt_km": 444.20667476442304,
        "timestamp": "2025-12-24T05:51:18.323874+00:00",
        "meta_object_name": "STARLINK-35981",
        "meta_object_id": "2025-270L",
        "meta_epoch": "2025-12-23T19:03:32.469120",
        "meta_mean_motion": 15.40748442,
        "meta_eccentricity": 0.0002454,
        "meta_inclination": 43.0028,
        "meta_ra_of_asc_node": 128.6923,
        "meta_arg_of_pericenter": 283.9609,
        "meta_mean_anomaly": 76.0975,
        "meta_ephemeris_type": 0,
        "meta_classification_type": "U",
        "meta_norad_cat_id": 66598,
        "meta_element_set_no": 999,
        "meta_rev_at_epoch": 590,
        "meta_bstar": 0.0010281449,
        "meta_mean_motion_dot": 0.00042958,
        "meta_mean_motion_ddot": 0,
        "tle_line1": "1 66598U 25270L   25357.79412580  .00042958  00000+0  10281-2 0  9999",
        "tle_line2": "2 66598  43.0028 128.6923 0002454 283.9609  76.0975 15.40748442  5903"
      },
      "geometry": {
        "type": "Point",
        "coordinates": [
          109.7107828662683,
          -14.732296638465444
        ]
      }
    },
    {
      "type": "Feature",
      "properties": {
        "norad_id": 66599,
        "name": "STARLINK-35930",
        "group": "last-30-days",
        "lat": 38.19616651483226,
        "lon": -111.83324375594184,
        "alt_km": 438.90791402852756,
        "timestamp": "2025-12-24T05:51:18.323887+00:00",
        "meta_object_name": "STARLINK-35930",
        "meta_object_id": "2025-270M",
        "meta_epoch": "2025-12-24T00:00:00.999648",
        "meta_mean_motion": 15.40696625,
        "meta_eccentricity": 0.00014297,
        "meta_inclination": 43.0006,
        "meta_ra_of_asc_node": 127.1737,
        "meta_arg_of_pericenter": 280.6587,
        "meta_mean_anomaly": 279.5318,
        "meta_ephemeris_type": 0,
        "meta_classification_type": "U",
        "meta_norad_cat_id": 66599,
        "meta_element_set_no": 999,
        "meta_rev_at_epoch": 611,
        "meta_bstar": 0.00021426294,
        "meta_mean_motion_dot": 8.656e-05,
        "meta_mean_motion_ddot": 0,
        "tle_line1": "1 66599U 25270M   25358.00001157  .00008656  00000+0  21426-3 0  9990",
        "tle_line2": "2 66599  43.0006 127.1737 0001429 280.6587 279.5318 15.40696625  6117"
      },
      "geometry": {
        "type": "Point",
        "coordinates": [
          -111.83324375594184,
          38.19616651483226
        ]
      }
    },
    {
      "type": "Feature",
      "properties": {
        "norad_id": 66600,
        "name": "STARLINK-35980",
        "group": "last-30-days",
        "lat": 18.547648702277392,
        "lon": 147.08101069505352,
        "alt_km": 441.40188481802124,
        "timestamp": "2025-12-24T05:51:18.323897+00:00",
        "meta_object_name": "STARLINK-35980",
        "meta_object_id": "2025-270N",
        "meta_epoch": "2025-12-23T20:23:59.567136",
        "meta_mean_motion": 15.40726369,
        "meta_eccentricity": 0.00017006,
        "meta_inclination": 43.0003,
        "meta_ra_of_asc_node": 128.2485,
        "meta_arg_of_pericenter": 271.9828,
        "meta_mean_anomaly": 88.0833,
        "meta_ephemeris_type": 0,
        "meta_classification_type": "U",
        "meta_norad_cat_id": 66600,
        "meta_element_set_no": 999,
        "meta_rev_at_epoch": 596,
        "meta_bstar": 0.00092613932,
        "meta_mean_motion_dot": 0.00038614,
        "meta_mean_motion_ddot": 0,
        "tle_line1": "1 66600U 25270N   25357.84999499  .00038614  00000+0  92614-3 0  9993",
        "tle_line2": "2 66600  43.0003 128.2485 0001700 271.9828  88.0833 15.40726369  5968"
      },
      "geometry": {
        "type": "Point",
        "coordinates": [
          147.08101069505352,
          18.547648702277392
        ]
      }
    },
    {
      "type": "Feature",
      "properties": {
        "norad_id": 66601,
        "name": "STARLINK-35978",
        "group": "last-30-days",
        "lat": -40.27021516091965,
        "lon": 60.834487858862,
        "alt_km": 447.0801298195656,
        "timestamp": "2025-12-24T05:51:18.323908+00:00",
        "meta_object_name": "STARLINK-35978",
        "meta_object_id": "2025-270P",
        "meta_epoch": "2025-12-22T16:49:26.256576",
        "meta_mean_motion": 15.40724614,
        "meta_eccentricity": 3.635e-05,
        "meta_inclination": 43.0011,
        "meta_ra_of_asc_node": 135.1079,
        "meta_arg_of_pericenter": 356.863,
        "meta_mean_anomaly": 3.2224,
        "meta_ephemeris_type": 0,
        "meta_classification_type": "U",
        "meta_norad_cat_id": 66601,
        "meta_element_set_no": 999,
        "meta_rev_at_epoch": 572,
        "meta_bstar": 0.00026821225,
        "meta_mean_motion_dot": 0.00010926,
        "meta_mean_motion_ddot": 0,
        "tle_line1": "1 66601U 25270P   25356.70099834  .00010926  00000+0  26821-3 0  9995",
        "tle_line2": "2 66601  43.0011 135.1079 0000363 356.8630   3.2224 15.40724614  5720"
      },
      "geometry": {
        "type": "Point",
        "coordinates": [
          60.834487858862,
          -40.27021516091965
        ]
      }
    },
    {
      "type": "Feature",
      "properties": {
        "norad_id": 66602,
        "name": "STARLINK-36050",
        "group": "last-30-days",
        "lat": -22.28082213157632,
        "lon": -27.518043717905197,
        "alt_km": 445.3392951886053,
        "timestamp": "2025-12-24T05:51:18.323918+00:00",
        "meta_object_name": "STARLINK-36050",
        "meta_object_id": "2025-270Q",
        "meta_epoch": "2025-12-23T16:29:05.797824",
        "meta_mean_motion": 15.40723382,
        "meta_eccentricity": 0.00020691,
        "meta_inclination": 43.0027,
        "meta_ra_of_asc_node": 129.6108,
        "meta_arg_of_pericenter": 272.9257,
        "meta_mean_anomaly": 87.1362,
        "meta_ephemeris_type": 0,
        "meta_classification_type": "U",
        "meta_norad_cat_id": 66602,
        "meta_element_set_no": 999,
        "meta_rev_at_epoch": 593,
        "meta_bstar": 0.00099833856,
        "meta_mean_motion_dot": 0.00041661,
        "meta_mean_motion_ddot": 0,
        "tle_line1": "1 66602U 25270Q   25357.68687266  .00041661  00000+0  99834-3 0  9990",
        "tle_line2": "2 66602  43.0027 129.6108 0002069 272.9257  87.1362 15.40723382  5935"
      },
      "geometry": {
        "type": "Point",
        "coordinates": [
          -27.518043717905197,
          -22.28082213157632
        ]
      }
    },
    {
      "type": "Feature",
      "properties": {
        "norad_id": 66603,
        "name": "STARLINK-36048",
        "group": "last-30-days",
        "lat": -22.6305325639956,
        "lon": 99.54409838243838,
        "alt_km": 445.83124340647464,
        "timestamp": "2025-12-24T05:51:18.323928+00:00",
        "meta_object_name": "STARLINK-36048",
        "meta_object_id": "2025-270R",
        "meta_epoch": "2025-12-23T16:00:04.310784",
        "meta_mean_motion": 15.40725788,
        "meta_eccentricity": 6.938e-05,
        "meta_inclination": 42.9946,
        "meta_ra_of_asc_node": 129.4525,
        "meta_arg_of_pericenter": 249.5933,
        "meta_mean_anomaly": 110.4849,
        "meta_ephemeris_type": 0,
        "meta_classification_type": "U",
        "meta_norad_cat_id": 66603,
        "meta_element_set_no": 999,
        "meta_rev_at_epoch": 593,
        "meta_bstar": 0.0011653172,
        "meta_mean_motion_dot": 0.00048728,
        "meta_mean_motion_ddot": 0,
        "tle_line1": "1 66603U 25270R   25357.66671656  .00048728  00000+0  11653-2 0  9998",
        "tle_line2": "2 66603  42.9946 129.4525 0000693 249.5933 110.4849 15.40725788  5939"
      },
      "geometry": {
        "type": "Point",
        "coordinates": [
          99.54409838243838,
          -22.6305325639956
        ]
      }
    }
  ]
}